PELICAN-3               
1 65315U 25188A   26117.12895597  .00010142  00000+0  25079-3 0  9990
2 65315  97.1986 194.0524 0002867 129.9748 230.1751 15.40647585 37453
PELICAN-4               
1 65316U 25188B   26117.14420970  .00001370  00000+0  35679-4 0  9993
2 65316  97.1983 194.2143 0004260 142.1086 218.0461 15.40586175 37451
PELICAN-5               
1 66667U 25276B   26117.48714711  .00005290  00000+0  19349-3 0  9997
2 66667  97.4165 192.6511 0004592 144.2901 215.8647 15.28490248 22775
PELICAN-6               
1 66703U 25276AP  26117.48890081  .00004867  00000+0  17622-3 0  9994
2 66703  97.4159 192.8113 0002719  59.8806 300.2703 15.28868544 22784
FLOCK 4H-1              
1 66704U 25276AQ  26116.77474035  .00007622  00000+0  35727-3 0  9991
2 66704  97.4194 191.2918 0003485 121.9995 238.1579 15.19961536 22629
FLOCK 4H-2              
1 66705U 25276AR  26117.48601918  .00007603  00000+0  35364-3 0  9999
2 66705  97.4191 192.0133 0002719 118.7160 241.4349 15.20231056 22735
FLOCK 4H-3              
1 66706U 25276AS  26117.43074406  .00008638  00000+0  41152-3 0  9992
2 66706  97.4258 191.9166 0004674 159.2069 200.9356 15.19355427 22717
FLOCK 4H-4              
1 66707U 25276AT  26117.19150973  .00007696  00000+0  36963-3 0  9997
2 66707  97.4243 191.5931 0005153 162.6579 197.4833 15.19110426 22678
FLOCK 4H-5              
1 66708U 25276AU  26117.16468337  .00008724  00000+0  40778-3 0  9993
2 66708  97.4194 191.6913 0002218 115.3717 244.7748 15.20020879 22689
FLOCK 4H-6              
1 66709U 25276AV  26117.19420106  .00007236  00000+0  34206-3 0  9995
2 66709  97.4245 191.7491 0004464 134.8009 225.3590 15.19684681 22689
FLOCK 4H-7              
1 66710U 25276AW  26116.76823837  .00007912  00000+0  37656-3 0  9990
2 66710  97.4202 191.1606 0002452 169.0472 191.0816 15.19422699 22617
FLOCK 4H-8              
1 66711U 25276AX  26117.48842883  .00007880  00000+0  37404-3 0  9998
2 66711  97.4243 191.9656 0003866 168.5287 191.6037 15.19512944 22720
FLOCK 4H-9              
1 66712U 25276AY  26117.45174310  .00007531  00000+0  35458-3 0  9999
2 66712  97.4235 191.9985 0004466 139.7687 220.3879 15.19808488 22723
FLOCK 4H-10             
1 66713U 25276AZ  26117.51134448  .00006653  00000+0  31884-3 0  9998
2 66713  97.4209 191.8637 0005136 162.1954 197.9462 15.19236291 22724
FLOCK 4H-11             
1 66714U 25276BA  26117.47334874  .00018191  00000+0  81604-3 0  9994
2 66714  97.4221 192.1019 0003598 165.7902 194.3435 15.21249840 22738
FLOCK 4H-12             
1 66715U 25276BB  26117.44091389  .00007534  00000+0  35433-3 0  9991
2 66715  97.4205 191.9468 0003579 125.2983 234.8587 15.19852211 23036
FLOCK 4H-13             
1 66716U 25276BC  26117.48702816  .00007862  00000+0  36671-3 0  9999
2 66716  97.4240 192.1093 0002873 109.5913 250.5633 15.20122046 22738
