[{"OBJECT_NAME":"PELICAN-3","OBJECT_ID":"2025-188A","EPOCH":"2026-04-27T03:05:41.795808","MEAN_MOTION":15.40647585,"ECCENTRICITY":0.00028679,"INCLINATION":97.1986,"RA_OF_ASC_NODE":194.0524,"ARG_OF_PERICENTER":129.9748,"MEAN_ANOMALY":230.1751,"EPHEMERIS_TYPE":0,"CLASSIFICATION_TYPE":"U","NORAD_CAT_ID":65315,"ELEMENT_SET_NO":999,"REV_AT_EPOCH":3745,"BSTAR":0.00025079209,"MEAN_MOTION_DOT":0.00010142,"MEAN_MOTION_DDOT":0},{"OBJECT_NAME":"PELICAN-4","OBJECT_ID":"2025-188B","EPOCH":"2026-04-27T03:27:39.718080","MEAN_MOTION":15.40586175,"ECCENTRICITY":0.00042602,"INCLINATION":97.1983,"RA_OF_ASC_NODE":194.2143,"ARG_OF_PERICENTER":142.1086,"MEAN_ANOMALY":218.0461,"EPHEMERIS_TYPE":0,"CLASSIFICATION_TYPE":"U","NORAD_CAT_ID":65316,"ELEMENT_SET_NO":999,"REV_AT_EPOCH":3745,"BSTAR":3.5678555e-5,"MEAN_MOTION_DOT":1.37e-5,"MEAN_MOTION_DDOT":0},{"OBJECT_NAME":"PELICAN-5","OBJECT_ID":"2025-276B","EPOCH":"2026-04-27T11:41:29.510304","MEAN_MOTION":15.28490248,"ECCENTRICITY":0.0004592,"INCLINATION":97.4165,"RA_OF_ASC_NODE":192.6511,"ARG_OF_PERICENTER":144.2901,"MEAN_ANOMALY":215.8647,"EPHEMERIS_TYPE":0,"CLASSIFICATION_TYPE":"U","NORAD_CAT_ID":66667,"ELEMENT_SET_NO":999,"REV_AT_EPOCH":2277,"BSTAR":0.00019349,"MEAN_MOTION_DOT":5.29e-5,"MEAN_MOTION_DDOT":0},{"OBJECT_NAME":"PELICAN-6","OBJECT_ID":"2025-276AP","EPOCH":"2026-04-27T11:44:01.029984","MEAN_MOTION":15.28868544,"ECCENTRICITY":0.0002719,"INCLINATION":97.4159,"RA_OF_ASC_NODE":192.8113,"ARG_OF_PERICENTER":59.8806,"MEAN_ANOMALY":300.2703,"EPHEMERIS_TYPE":0,"CLASSIFICATION_TYPE":"U","NORAD_CAT_ID":66703,"ELEMENT_SET_NO":999,"REV_AT_EPOCH":2278,"BSTAR":0.00017622,"MEAN_MOTION_DOT":4.867e-5,"MEAN_MOTION_DDOT":0},{"OBJECT_NAME":"FLOCK 4H-1","OBJECT_ID":"2025-276AQ","EPOCH":"2026-04-26T18:35:37.566240","MEAN_MOTION":15.19961536,"ECCENTRICITY":0.00034854,"INCLINATION":97.4194,"RA_OF_ASC_NODE":191.2918,"ARG_OF_PERICENTER":121.9995,"MEAN_ANOMALY":238.1579,"EPHEMERIS_TYPE":0,"CLASSIFICATION_TYPE":"U","NORAD_CAT_ID":66704,"ELEMENT_SET_NO":999,"REV_AT_EPOCH":2262,"BSTAR":0.00035727066,"MEAN_MOTION_DOT":7.622e-5,"MEAN_MOTION_DDOT":0},{"OBJECT_NAME":"FLOCK 4H-2","OBJECT_ID":"2025-276AR","EPOCH":"2026-04-27T11:39:52.057152","MEAN_MOTION":15.20231056,"ECCENTRICITY":0.0002719,"INCLINATION":97.4191,"RA_OF_ASC_NODE":192.0133,"ARG_OF_PERICENTER":118.716,"MEAN_ANOMALY":241.4349,"EPHEMERIS_TYPE":0,"CLASSIFICATION_TYPE":"U","NORAD_CAT_ID":66705,"ELEMENT_SET_NO":999,"REV_AT_EPOCH":2273,"BSTAR":0.00035364,"MEAN_MOTION_DOT":7.603e-5,"MEAN_MOTION_DDOT":0},{"OBJECT_NAME":"FLOCK 4H-3","OBJECT_ID":"2025-276AS","EPOCH":"2026-04-27T10:20:16.286784","MEAN_MOTION":15.19355427,"ECCENTRICITY":0.0004674,"INCLINATION":97.4258,"RA_OF_ASC_NODE":191.9166,"ARG_OF_PERICENTER":159.2069,"MEAN_ANOMALY":200.9356,"EPHEMERIS_TYPE":0,"CLASSIFICATION_TYPE":"U","NORAD_CAT_ID":66706,"ELEMENT_SET_NO":999,"REV_AT_EPOCH":2271,"BSTAR":0.00041152,"MEAN_MOTION_DOT":8.638e-5,"MEAN_MOTION_DDOT":0},{"OBJECT_NAME":"FLOCK 4H-4","OBJECT_ID":"2025-276AT","EPOCH":"2026-04-27T04:35:46.440672","MEAN_MOTION":15.19110426,"ECCENTRICITY":0.00051534,"INCLINATION":97.4243,"RA_OF_ASC_NODE":191.5931,"ARG_OF_PERICENTER":162.6579,"MEAN_ANOMALY":197.4833,"EPHEMERIS_TYPE":0,"CLASSIFICATION_TYPE":"U","NORAD_CAT_ID":66707,"ELEMENT_SET_NO":999,"REV_AT_EPOCH":2267,"BSTAR":0.00036963347,"MEAN_MOTION_DOT":7.696e-5,"MEAN_MOTION_DDOT":0},{"OBJECT_NAME":"FLOCK 4H-5","OBJECT_ID":"2025-276AU","EPOCH":"2026-04-27T03:57:08.643168","MEAN_MOTION":15.20020879,"ECCENTRICITY":0.00022185,"INCLINATION":97.4194,"RA_OF_ASC_NODE":191.6913,"ARG_OF_PERICENTER":115.3717,"MEAN_ANOMALY":244.7748,"EPHEMERIS_TYPE":0,"CLASSIFICATION_TYPE":"U","NORAD_CAT_ID":66708,"ELEMENT_SET_NO":999,"REV_AT_EPOCH":2268,"BSTAR":0.0004077778,"MEAN_MOTION_DOT":8.724e-5,"MEAN_MOTION_DDOT":0},{"OBJECT_NAME":"FLOCK 4H-6","OBJECT_ID":"2025-276AV","EPOCH":"2026-04-27T04:39:38.971584","MEAN_MOTION":15.19684681,"ECCENTRICITY":0.00044648,"INCLINATION":97.4245,"RA_OF_ASC_NODE":191.7491,"ARG_OF_PERICENTER":134.8009,"MEAN_ANOMALY":225.359,"EPHEMERIS_TYPE":0,"CLASSIFICATION_TYPE":"U","NORAD_CAT_ID":66709,"ELEMENT_SET_NO":999,"REV_AT_EPOCH":2268,"BSTAR":0.00034205707,"MEAN_MOTION_DOT":7.236e-5,"MEAN_MOTION_DDOT":0},{"OBJECT_NAME":"FLOCK 4H-7","OBJECT_ID":"2025-276AW","EPOCH":"2026-04-26T18:26:15.795168","MEAN_MOTION":15.19422699,"ECCENTRICITY":0.00024527,"INCLINATION":97.4202,"RA_OF_ASC_NODE":191.1606,"ARG_OF_PERICENTER":169.0472,"MEAN_ANOMALY":191.0816,"EPHEMERIS_TYPE":0,"CLASSIFICATION_TYPE":"U","NORAD_CAT_ID":66710,"ELEMENT_SET_NO":999,"REV_AT_EPOCH":2261,"BSTAR":0.00037655726,"MEAN_MOTION_DOT":7.912e-5,"MEAN_MOTION_DDOT":0},{"OBJECT_NAME":"FLOCK 4H-8","OBJECT_ID":"2025-276AX","EPOCH":"2026-04-27T11:43:20.250912","MEAN_MOTION":15.19512944,"ECCENTRICITY":0.0003866,"INCLINATION":97.4243,"RA_OF_ASC_NODE":191.9656,"ARG_OF_PERICENTER":168.5287,"MEAN_ANOMALY":191.6037,"EPHEMERIS_TYPE":0,"CLASSIFICATION_TYPE":"U","NORAD_CAT_ID":66711,"ELEMENT_SET_NO":999,"REV_AT_EPOCH":2272,"BSTAR":0.00037404,"MEAN_MOTION_DOT":7.88e-5,"MEAN_MOTION_DDOT":0},{"OBJECT_NAME":"FLOCK 4H-9","OBJECT_ID":"2025-276AY","EPOCH":"2026-04-27T10:50:30.603840","MEAN_MOTION":15.19808488,"ECCENTRICITY":0.0004466,"INCLINATION":97.4235,"RA_OF_ASC_NODE":191.9985,"ARG_OF_PERICENTER":139.7687,"MEAN_ANOMALY":220.3879,"EPHEMERIS_TYPE":0,"CLASSIFICATION_TYPE":"U","NORAD_CAT_ID":66712,"ELEMENT_SET_NO":999,"REV_AT_EPOCH":2272,"BSTAR":0.00035458,"MEAN_MOTION_DOT":7.531e-5,"MEAN_MOTION_DDOT":0},{"OBJECT_NAME":"FLOCK 4H-10","OBJECT_ID":"2025-276AZ","EPOCH":"2026-04-27T12:16:20.163072","MEAN_MOTION":15.19236291,"ECCENTRICITY":0.0005136,"INCLINATION":97.4209,"RA_OF_ASC_NODE":191.8637,"ARG_OF_PERICENTER":162.1954,"MEAN_ANOMALY":197.9462,"EPHEMERIS_TYPE":0,"CLASSIFICATION_TYPE":"U","NORAD_CAT_ID":66713,"ELEMENT_SET_NO":999,"REV_AT_EPOCH":2272,"BSTAR":0.00031884,"MEAN_MOTION_DOT":6.653e-5,"MEAN_MOTION_DDOT":0},{"OBJECT_NAME":"FLOCK 4H-11","OBJECT_ID":"2025-276BA","EPOCH":"2026-04-27T11:21:37.331136","MEAN_MOTION":15.2124984,"ECCENTRICITY":0.0003598,"INCLINATION":97.4221,"RA_OF_ASC_NODE":192.1019,"ARG_OF_PERICENTER":165.7902,"MEAN_ANOMALY":194.3435,"EPHEMERIS_TYPE":0,"CLASSIFICATION_TYPE":"U","NORAD_CAT_ID":66714,"ELEMENT_SET_NO":999,"REV_AT_EPOCH":2273,"BSTAR":0.00081604,"MEAN_MOTION_DOT":0.00018191,"MEAN_MOTION_DDOT":0},{"OBJECT_NAME":"FLOCK 4H-12","OBJECT_ID":"2025-276BB","EPOCH":"2026-04-27T10:34:54.960096","MEAN_MOTION":15.19852211,"ECCENTRICITY":0.0003579,"INCLINATION":97.4205,"RA_OF_ASC_NODE":191.9468,"ARG_OF_PERICENTER":125.2983,"MEAN_ANOMALY":234.8587,"EPHEMERIS_TYPE":0,"CLASSIFICATION_TYPE":"U","NORAD_CAT_ID":66715,"ELEMENT_SET_NO":999,"REV_AT_EPOCH":2303,"BSTAR":0.00035433,"MEAN_MOTION_DOT":7.534e-5,"MEAN_MOTION_DDOT":0},{"OBJECT_NAME":"FLOCK 4H-13","OBJECT_ID":"2025-276BC","EPOCH":"2026-04-27T11:41:19.233024","MEAN_MOTION":15.20122046,"ECCENTRICITY":0.0002873,"INCLINATION":97.424,"RA_OF_ASC_NODE":192.1093,"ARG_OF_PERICENTER":109.5913,"MEAN_ANOMALY":250.5633,"EPHEMERIS_TYPE":0,"CLASSIFICATION_TYPE":"U","NORAD_CAT_ID":66716,"ELEMENT_SET_NO":999,"REV_AT_EPOCH":2273,"BSTAR":0.00036671,"MEAN_MOTION_DOT":7.862e-5,"MEAN_MOTION_DDOT":0}]
